NORAD_CAT_ID,OBJECT_NAME,OBJECT_TYPE,EPOCH,MEAN_MOTION,ECCENTRICITY,INCLINATION,RA_OF_ASC_NODE,ARG_OF_PERICENTER,MEAN_ANOMALY,BSTAR,MEAN_MOTION_DOT,MEAN_MOTION_DDOT,TLE_LINE0,TLE_LINE1,TLE_LINE2,SEMIMAJOR_AXIS,PERIOD,APOGEE,PERIGEE,DECAYED
52341.0,STARLINK-3843,PAYLOAD,2022-07-04 14:00:01,15.08817725,0.0002078,53.2159,123.0499,49.9653,116.2332,9.3129e-05,1.193e-05,0.0,0 STARLINK-3843,1 52341U 22045L   22185.58334491  .00001193  00000-0  93129-4 0  9995,2 52341  53.2159 123.0499 0002078  49.9653 116.2332 15.08817725  1309,6917.948,95.439,541.251,538.376,0.0
52341.0,STARLINK-3843,PAYLOAD,2022-07-04 22:00:00,15.08842412,0.0002141,53.216,121.5538,53.0231,124.7454,-0.00075568,-0.00012296,0.0,0 STARLINK-3843,1 52341U 22045L   22185.91667824 -.00012296  00000-0 -75568-3 0  9995,2 52341  53.2160 121.5538 0002141  53.0231 124.7454 15.08842412  1307,6917.873000000001,95.437,541.219,538.257,0.0
52341.0,STARLINK-3843,PAYLOAD,2022-07-05 14:00:01,15.08836217,0.0002166,53.216,118.5606,51.5498,149.4064,0.00081642,0.00012728,0.0,0 STARLINK-3843,1 52341U 22045L   22186.58334491  .00012728  00000-0  81642-3 0  9998,2 52341  53.2160 118.5606 0002166  51.5498 149.4064 15.08836217  1301,6917.892,95.438,541.255,538.259,0.0
52341.0,STARLINK-3843,PAYLOAD,2022-07-05 22:00:00,15.08861161,0.0002243,53.2162,117.0646,53.9025,158.6423,-0.001002,-0.0001621,0.0,0 STARLINK-3843,1 52341U 22045L   22186.91667824 -.00016210  00000-0 -10020-2 0  9997,2 52341  53.2162 117.0646 0002243  53.9025 158.6423 15.08861161 12926,6917.816,95.436,541.232,538.129,0.0
52341.0,STARLINK-3843,PAYLOAD,2022-07-06 14:00:01,15.08819801,0.0002162,53.2164,114.0711,51.8256,183.9426,0.0012209,0.00019185,0.0,0 STARLINK-3843,1 52341U 22045L   22187.58334491  .00019185  00000-0  12209-2 0  9995,2 52341  53.2164 114.0711 0002162  51.8256 183.9426 15.08819801  1309,6917.941999999999,95.439,541.303,538.311,0.0
52341.0,STARLINK-3843,PAYLOAD,2022-07-06 19:19:07,15.08838476,0.0002222,53.2174,113.0761,54.4489,305.671,7.854e-05,9.62e-06,0.0,0 STARLINK-3843,1 52341U 22045L   22187.80494552  .00000962  00000-0  78540-4 0  9990,2 52341  53.2174 113.0761 0002222  54.4489 305.6710 15.08838476 13062,6917.885,95.438,541.2869999999998,538.2130000000002,0.0
52341.0,STARLINK-3843,PAYLOAD,2022-07-07 06:00:02,15.08821603,0.0002363,53.2163,111.08,49.4696,209.5426,0.0030427,0.00048446,0.0,0 STARLINK-3843,1 52341U 22045L   22188.25002315  .00048446  00000-0  30427-2 0  9991,2 52341  53.2163 111.0800 0002363  49.4696 209.5426 15.08821603 13130,6917.937,95.439,541.436,538.1669999999998,0.0
52341.0,STARLINK-3843,PAYLOAD,2022-07-07 14:00:01,15.08837646,0.0002181,53.2166,109.5817,54.0815,216.4696,0.0012832,0.00020192,0.0,0 STARLINK-3843,1 52341U 22045L   22188.58334491  .00020192  00000-0  12832-2 0  9998,2 52341  53.2166 109.5817 0002181  54.0815 216.4696 15.08837646  1302,6917.888000000001,95.438,541.261,538.244,0.0
52341.0,STARLINK-3843,PAYLOAD,2022-07-07 22:00:00,15.08863091,0.0002187,53.2167,108.0859,54.2855,227.8651,-0.0031939,-0.00050795,0.0,0 STARLINK-3843,1 52341U 22045L   22188.91667824 -.00050795  00000-0 -31939-2 0  9997,2 52341  53.2167 108.0859 0002187  54.2855 227.8651 15.08863091 13230,6917.81,95.436,541.188,538.1619999999998,0.0
52341.0,STARLINK-3843,PAYLOAD,2022-07-08 04:42:12,15.08847402,0.0002313,53.2168,106.8336,49.8295,310.2899,5.0408e-05,5.14e-06,0.0,0 STARLINK-3843,1 52341U 22045L   22189.19597917  .00000514  00000-0  50408-4 0  9999,2 52341  53.2168 106.8336 0002313  49.8295 310.2899 15.08847402 13279,6917.858,95.437,541.323,538.123,0.0
52341.0,STARLINK-3843,PAYLOAD,2022-07-08 14:00:01,15.08843989,0.000206,53.2167,105.0924,55.2323,250.1506,0.0033040999999999,0.00052697,0.0,0 STARLINK-3843,1 52341U 22045L   22189.58334491  .00052697  00000-0  33041-2 0  9999,2 52341  53.2167 105.0924 0002060  55.2323 250.1506 15.08843989 13323,6917.868,95.437,541.158,538.308,0.0
52341.0,STARLINK-3843,PAYLOAD,2022-07-08 22:00:01,15.08855591,0.0001968,53.2169,103.5968,52.2012,264.8225,-0.0025444,-0.00040573,0.0,0 STARLINK-3843,1 52341U 22045L   22189.91668981 -.00040573  00000-0 -25444-2 0  9990,2 52341  53.2169 103.5968 0001968  52.2012 264.8225 15.08855591 13371,6917.833000000001,95.437,541.059,538.336,0.0
52341.0,STARLINK-3843,PAYLOAD,2022-07-09 14:00:01,15.08795308,0.0001814,53.2167,100.6034,52.1239,288.0017,0.00098918,0.00015471,0.0,0 STARLINK-3843,1 52341U 22045L   22190.58334491  .00015471  00000-0  98918-3 0  9995,2 52341  53.2167 100.6034 0001814  52.1239 288.0017 15.08795308  1307,6918.017,95.44,541.137,538.627,0.0
52341.0,STARLINK-3843,PAYLOAD,2022-07-09 20:00:01,15.088464300000002,0.000194,53.2169,99.4817,55.6249,203.17,-0.00058678,-9.616e-05,0.0,0 STARLINK-3843,1 52341U 22045L   22190.83334491 -.00009616  00000-0 -58678-3 0  9998,2 52341  53.2169  99.4817 0001940  55.6249 203.1700 15.08846430  1302,6917.861,95.437,541.068,538.384,0.0
52341.0,STARLINK-3843,PAYLOAD,2022-07-10 14:00:01,15.08823007,0.0001909,53.2165,96.1145,56.3073,318.5889,0.0031253,0.0004978,0.0,0 STARLINK-3843,1 52341U 22045L   22191.58334491  .00049780  00000-0  31253-2 0  9994,2 52341  53.2165  96.1145 0001909  56.3073 318.5889 15.08823007  1308,6917.932,95.439,541.118,538.477,0.0
52341.0,STARLINK-3843,PAYLOAD,2022-07-10 22:00:00,15.08877771,0.0001991,53.2168,94.6194,54.3289,332.1594,-0.0044671,-0.00070759,0.0,0 STARLINK-3843,1 52341U 22045L   22191.91667824 -.00070759  00000-0 -44671-2 0  9990,2 52341  53.2168  94.6194 0001991  54.3289 332.1594 15.08877771 13682,6917.765,95.435,541.007,538.253,0.0
52341.0,STARLINK-3843,PAYLOAD,2022-07-11 14:00:01,15.0881675,0.0001852,53.2166,91.6256,55.7541,353.9442,0.0030864,0.00049144,0.0,0 STARLINK-3843,1 52341U 22045L   22192.58334491  .00049144  00000-0  30864-2 0  9996,2 52341  53.2166  91.6256 0001852  55.7541 353.9442 15.08816750 13782,6917.951,95.439,541.0980000000002,538.535,0.0
52341.0,STARLINK-3843,PAYLOAD,2022-07-11 22:00:00,15.08862135,0.0001982,53.2168,90.1307,53.6666,7.6213,-0.0034031999999999,-0.00054078,0.0,0 STARLINK-3843,1 52341U 22045L   22192.91667824 -.00054078  00000-0 -34032-2 0  9997,2 52341  53.2168  90.1307 0001982  53.6666   7.6213 15.08862135  1306,6917.813,95.436,541.049,538.307,0.0
52341.0,STARLINK-3843,PAYLOAD,2022-07-12 06:00:00,15.08846507,0.0001983,53.2166,88.6347,48.0479,24.8391,-0.0007473,-0.00012164,0.0,0 STARLINK-3843,1 52341U 22045L   22193.25001157 -.00012164  00000-0 -74730-3 0  9996,2 52341  53.2166  88.6347 0001983  48.0479  24.8391 15.08846507 13880,6917.86,95.437,541.097,538.354,0.0
52341.0,STARLINK-3843,PAYLOAD,2022-07-12 14:00:01,15.08807837,0.000177,53.2168,87.1366,53.5425,30.9593,0.003005,0.00047819,0.0,0 STARLINK-3843,1 52341U 22045L   22193.58334491  .00047819  00000-0  30050-2 0  9991,2 52341  53.2168  87.1366 0001770  53.5425  30.9593 15.08807837  1302,6917.979,95.44,541.068,538.619,0.0
52341.0,STARLINK-3843,PAYLOAD,2022-07-12 22:00:00,15.08852197,0.0001926,53.2169,85.6418,51.5269,44.5544,-0.00067508,-0.0001102,0.0,0 STARLINK-3843,1 52341U 22045L   22193.91667824 -.00011020  00000-0 -67508-3 0  9993,2 52341  53.2169  85.6418 0001926  51.5269  44.5544 15.08852197  1307,6917.843000000003,95.437,541.04,538.376,0.0
52341.0,STARLINK-3843,PAYLOAD,2022-07-13 06:00:00,15.08866735,0.000195,53.2169,84.1457,46.6963,60.9797,-0.0021388,-0.00034192,0.0,0 STARLINK-3843,1 52341U 22045L   22194.25001157 -.00034192  00000-0 -21388-2 0  9992,2 52341  53.2169  84.1457 0001950  46.6963  60.9797 15.08866735 14036,6917.799,95.436,541.013,538.315,0.0
52341.0,STARLINK-3843,PAYLOAD,2022-07-13 14:00:01,15.08824063,0.0001718,53.2171,82.6477,50.7182,68.5754,0.00047684,7.306e-05,0.0,0 STARLINK-3843,1 52341U 22045L   22194.58334491  .00007306  00000-0  47684-3 0  9991,2 52341  53.2171  82.6477 0001718  50.7182  68.5754 15.08824063  1306,6917.929,95.439,540.9830000000002,538.606,0.0
52341.0,STARLINK-3843,PAYLOAD,2022-07-13 22:00:00,15.08822889,0.0001854,53.2172,81.1528,47.8171,83.0563,-0.00078002,-0.00012675,0.0,0 STARLINK-3843,1 52341U 22045L   22194.91667824 -.00012675  00000-0 -78002-3 0  9992,2 52341  53.2172  81.1528 0001854  47.8171  83.0563 15.08822889  1308,6917.933000000001,95.439,541.08,538.515,0.0
52341.0,STARLINK-3843,PAYLOAD,2022-07-14 08:00:01,15.08851547,0.0001864,53.2173,79.2819,47.8909,187.4377,-0.004554,-0.00072064,0.0,0 STARLINK-3843,1 52341U 22045L   22195.33334491 -.00072064  00000-0 -45540-2 0  9998,2 52341  53.2173  79.2819 0001864  47.8909 187.4377 15.08851547 14196,6917.845,95.437,541.0,538.4209999999998,0.0
52341.0,STARLINK-3843,PAYLOAD,2022-07-14 14:00:01,15.08785988,0.0001828,53.2174,78.1587,53.6458,100.3771,0.0030128,0.00047916,0.0,0 STARLINK-3843,1 52341U 22045L   22195.58334491  .00047916  00000-0  30128-2 0  9997,2 52341  53.2174  78.1587 0001828  53.6458 100.3771 15.08785988  1307,6918.045,95.441,541.175,538.646,0.0
52341.0,STARLINK-3843,PAYLOAD,2022-07-14 22:00:00,15.0882059,0.0001989,53.2174,76.6638,50.7687,114.8048,-0.00061064,-9.988e-05,0.0,0 STARLINK-3843,1 52341U 22045L   22195.91667824 -.00009988  00000-0 -61064-3 0  9996,2 52341  53.2174  76.6638 0001989  50.7687 114.8048 15.08820590 14284,6917.94,95.439,541.181,538.429,0.0
52341.0,STARLINK-3843,PAYLOAD,2022-07-15 14:00:01,15.08818198,0.0001839,53.2174,73.6695,55.6396,133.0872,0.0029222,0.00046498,0.0,0 STARLINK-3843,1 52341U 22045L   22196.58334491  .00046498  00000-0  29222-2 0  9995,2 52341  53.2174  73.6695 0001839  55.6396 133.0872 15.08818198 14389,6917.946999999999,95.439,541.0840000000002,538.54,0.0
52341.0,STARLINK-3843,PAYLOAD,2022-07-15 22:00:00,15.08848495,0.0001991,53.2173,72.1747,51.9472,148.3695,-0.00031242,-5.258e-05,0.0,0 STARLINK-3843,1 52341U 22045L   22196.91667824 -.00005258  00000-0 -31242-3 0  9998,2 52341  53.2173  72.1747 0001991  51.9472 148.3695 15.08848495  1306,6917.854,95.437,541.097,538.342,0.0
